OBJECT_NAME,OBJECT_ID,EPOCH,MEAN_MOTION,ECCENTRICITY,INCLINATION,RA_OF_ASC_NODE,ARG_OF_PERICENTER,MEAN_ANOMALY,EPHEMERIS_TYPE,CLASSIFICATION_TYPE,NORAD_CAT_ID,ELEMENT_SET_NO,REV_AT_EPOCH,BSTAR,MEAN_MOTION_DOT,MEAN_MOTION_DDOT
STARLINK-4076,2022-053M,2026-06-05T14:59:53.414592,15.08820762,.0001431,53.1781,119.3347,71.7745,288.3402,0,U,52667,999,22432,.26735807E-3,.3967E-4,0
STARLINK-4067,2022-053N,2026-06-06T03:53:33.477792,15.08845576,.00017355,53.1773,116.9183,102.3454,257.7732,0,U,52668,999,22440,.82900209E-4,.1032E-4,0
STARLINK-3972,2022-053P,2026-06-06T03:27:04.558464,15.08836303,.00014874,53.1785,117.0038,79.0411,281.0748,0,U,52669,999,22439,.52326241E-4,.545E-5,0
STARLINK-4075,2022-053Q,2026-06-06T03:58:52.641984,15.08839318,.00012198,53.1742,116.9713,105.9176,254.1950,0,U,52670,999,22440,.14106835E-4,-.63E-6,0
STARLINK-4071,2022-053R,2026-06-05T01:55:36.325920,15.08832147,.00007703,53.1767,121.7815,45.5226,314.5829,0,U,52671,999,22423,.65974019E-4,.762E-5,0
STARLINK-4073,2022-053S,2026-06-06T03:37:40.362240,15.08835843,.00012417,53.1771,116.9677,100.1020,260.0112,0,U,52672,999,22439,.354934E-5,-.231E-5,0
STARLINK-3976,2022-053T,2026-06-05T14:28:06.370464,15.08809912,.00013488,53.1784,119.4343,94.7688,265.3458,0,U,52673,999,22431,.34733552E-3,.524E-4,0
STARLINK-3936,2022-053U,2026-06-06T06:00:02.000160,15.44584072,.0001266,53.2176,108.1666,80.7628,117.6722,0,U,52674,999,586,.50970451E-2,.248177E-2,0
STARLINK-3934,2022-053V,2026-06-05T14:24:07.649856,15.08817459,.0001228,53.1782,109.4468,102.1850,257.9279,0,U,52675,999,22444,.25142129E-3,.3713E-4,0
STARLINK-4006,2022-053W,2026-06-05T14:33:23.734080,15.08834105,.00015328,53.1789,119.4187,83.2304,276.8862,0,U,52676,999,22431,.9005586E-5,-.145E-5,0
STARLINK-4074,2022-053Y,2026-06-06T03:23:06.910944,15.08835239,.00012059,53.1772,107.1227,81.8820,278.2308,0,U,52678,999,22452,.41420966E-4,.371E-5,0
STARLINK-4031,2022-053Z,2026-06-05T13:57:34.596288,15.08862975,.00015961,53.1827,109.5276,93.3541,266.7633,0,U,52679,999,22440,-.28538088E-3,-.483E-4,0
STARLINK-3774,2022-053AA,2026-06-05T13:47:00.988800,15.08818856,.00017141,53.1785,109.3332,85.7518,274.3669,0,U,52680,999,22442,-.26460867E-4,-.709E-5,0
STARLINK-4068,2022-053AB,2026-06-05T13:52:19.562016,15.08833203,.00013478,53.1784,109.5458,88.6440,271.4706,0,U,52681,999,22440,.76313745E-4,.927E-5,0
STARLINK-4017,2022-053AC,2026-06-05T14:08:12.954048,15.08835140,.00011626,53.1785,109.4940,105.4598,254.6523,0,U,52682,999,22442,-.24736403E-4,-.681E-5,0
STARLINK-4014,2022-053AE,2026-06-06T02:46:00.076224,15.08842054,.00012604,53.1733,107.1323,92.0676,268.0460,0,U,52684,999,22448,.33897152E-4,.252E-5,0
STARLINK-4029,2022-053AF,2026-06-06T03:49:36.169824,15.08843934,.00016893,53.1759,106.9359,93.4922,266.6263,0,U,52685,999,22447,.2746222E-3,.4086E-4,0
STARLINK-4005,2022-053AG,2026-06-06T03:08:37.243968,15.08841452,.00013598,53.1751,107.3381,111.0381,249.0757,0,U,52686,999,22447,.46399757E-4,.451E-5,0
STARLINK-3981,2022-053AH,2026-06-06T03:44:17.676960,15.08837961,.00011858,53.1752,106.9515,70.9177,289.1943,0,U,52687,999,22447,.894937E-5,-.145E-5,0
STARLINK-4032,2022-053AJ,2026-06-06T03:38:58.391808,15.08841699,.0001333,53.1761,106.8515,91.3427,268.7717,0,U,52688,999,22447,-.55681924E-4,-.1174E-4,0
STARLINK-4078,2022-053AK,2026-06-06T00:00:02.999808,15.70212990,.00020888,53.2063,14.2887,147.9440,309.4435,0,U,52689,999,592,.13621026E-2,.171427E-2,0
STARLINK-4035,2022-053AL,2026-06-06T03:54:54.010368,15.08842690,.00013278,53.1764,106.9181,97.5415,262.5727,0,U,52690,999,22447,-.66417276E-4,-.1345E-4,0
STARLINK-3993,2022-053AN,2026-06-06T03:01:50.897856,15.08839550,.00015691,53.1776,106.8096,100.0989,260.0179,0,U,52692,999,22450,.6676719E-4,.775E-5,0
STARLINK-3946,2022-053AP,2026-06-06T03:12:29.438784,15.08843332,.00011141,53.1771,107.0458,85.3255,274.7864,0,U,52693,999,22450,.38515661E-4,.325E-5,0
STARLINK-4072,2022-053AQ,2026-06-06T03:33:41.740128,15.08837352,.00013992,53.1747,106.9848,78.7571,281.3578,0,U,52694,999,22450,.6512052E-5,-.184E-5,0
STARLINK-4041,2022-053AR,2026-06-05T14:10:11.365248,15.08808561,.00012614,53.1777,114.2865,82.0953,278.0182,0,U,52695,999,22436,.35936085E-3,.5431E-4,0
STARLINK-4018,2022-053AT,2026-06-06T03:31:45.732576,15.08836619,.00013344,53.1783,111.9905,87.0506,273.0639,0,U,52697,999,22444,.25229659E-4,.114E-5,0
STARLINK-4030,2022-053AU,2026-06-06T03:46:16.633344,15.08829007,.00014266,53.1755,111.9349,70.6014,289.5132,0,U,52698,999,22443,.81995188E-4,.1017E-4,0
STARLINK-3987,2022-053AV,2026-06-06T03:15:48.516480,15.08842198,.00016263,53.1751,102.0700,79.0010,281.1164,0,U,52699,999,22459,.73507769E-4,.882E-5,0
STARLINK-4034,2022-053AW,2026-06-05T14:04:49.297152,15.08854239,.00005001,53.1785,114.1510,111.8315,248.2730,0,U,52700,999,22436,.20501549E-3,.2978E-4,0
