STARLINK-4076           
1 52667U 22053M   26156.62492378  .00003967  00000+0  26736-3 0  9990
2 52667  53.1781 119.3347 0001431  71.7745 288.3402 15.08820762224320
STARLINK-4067           
1 52668U 22053N   26157.16219303  .00001032  00000+0  82900-4 0  9993
2 52668  53.1773 116.9183 0001735 102.3454 257.7732 15.08845576224403
STARLINK-3972           
1 52669U 22053P   26157.14380276  .00000545  00000+0  52326-4 0  9997
2 52669  53.1785 117.0038 0001487  79.0411 281.0748 15.08836303224398
STARLINK-4075           
1 52670U 22053Q   26157.16588706 -.00000063  00000+0  14107-4 0  9990
2 52670  53.1742 116.9713 0001219 105.9176 254.1950 15.08839318224408
STARLINK-4071           
1 52671U 22053R   26156.08028155  .00000762  00000+0  65974-4 0  9991
2 52671  53.1767 121.7815 0000770  45.5226 314.5829 15.08832147224239
STARLINK-4073           
1 52672U 22053S   26157.15116160 -.00000231  00000+0  35493-5 0  9991
2 52672  53.1771 116.9677 0001241 100.1020 260.0112 15.08835843224394
STARLINK-3976           
1 52673U 22053T   26156.60285151  .00005240  00000+0  34734-3 0  9997
2 52673  53.1784 119.4343 0001348  94.7688 265.3458 15.08809912224314
STARLINK-3936           
1 52674U 22053U   26157.25002315  .00248177  00000+0  50970-2 0  9996
2 52674  53.2176 108.1666 0001266  80.7628 117.6722 15.44584072  5869
STARLINK-3934           
1 52675U 22053V   26156.60008854  .00003713  00000+0  25142-3 0  9998
2 52675  53.1782 109.4468 0001228 102.1850 257.9279 15.08817459224440
STARLINK-4006           
1 52676U 22053W   26156.60652470 -.00000145  00000+0  90056-5 0  9993
2 52676  53.1789 119.4187 0001532  83.2304 276.8862 15.08834105224319
STARLINK-4074           
1 52678U 22053Y   26157.14105221  .00000371  00000+0  41421-4 0  9993
2 52678  53.1772 107.1227 0001205  81.8820 278.2308 15.08835239224529
STARLINK-4031           
1 52679U 22053Z   26156.58165042 -.00004830  00000+0 -28538-3 0  9997
2 52679  53.1827 109.5276 0001596  93.3541 266.7633 15.08862975224409
STARLINK-3774           
1 52680U 22053AA  26156.57431700 -.00000709  00000+0 -26461-4 0  9990
2 52680  53.1785 109.3332 0001714  85.7518 274.3669 15.08818856224421
STARLINK-4068           
1 52681U 22053AB  26156.57800419  .00000927  00000+0  76314-4 0  9990
2 52681  53.1784 109.5458 0001347  88.6440 271.4706 15.08833203224401
STARLINK-4017           
1 52682U 22053AC  26156.58903882 -.00000681  00000+0 -24736-4 0  9990
2 52682  53.1785 109.4940 0001162 105.4598 254.6523 15.08835140224429
STARLINK-4014           
1 52684U 22053AE  26157.11527866  .00000252  00000+0  33897-4 0  9996
2 52684  53.1733 107.1323 0001260  92.0676 268.0460 15.08842054224488
STARLINK-4029           
1 52685U 22053AF  26157.15944641  .00004086  00000+0  27462-3 0  9994
2 52685  53.1759 106.9359 0001689  93.4922 266.6263 15.08843934224479
STARLINK-4005           
1 52686U 22053AG  26157.13098662  .00000451  00000+0  46400-4 0  9992
2 52686  53.1751 107.3381 0001359 111.0381 249.0757 15.08841452224478
STARLINK-3981           
1 52687U 22053AH  26157.15576015 -.00000145  00000+0  89494-5 0  9990
2 52687  53.1752 106.9515 0001185  70.9177 289.1943 15.08837961224479
STARLINK-4032           
1 52688U 22053AJ  26157.15206472 -.00001174  00000+0 -55682-4 0  9993
2 52688  53.1761 106.8515 0001333  91.3427 268.7717 15.08841699224474
STARLINK-4078           
1 52689U 22053AK  26157.00003472  .00171427  00000+0  13621-2 0  9995
2 52689  53.2063  14.2887 0002088 147.9440 309.4435 15.70212990  5928
STARLINK-4035           
1 52690U 22053AL  26157.16312512 -.00001345  00000+0 -66417-4 0  9998
2 52690  53.1764 106.9181 0001327  97.5415 262.5727 15.08842690224473
STARLINK-3993           
1 52692U 22053AN  26157.12628354  .00000775  00000+0  66767-4 0  9992
2 52692  53.1776 106.8096 0001569 100.0989 260.0179 15.08839550224505
STARLINK-3946           
1 52693U 22053AP  26157.13367406  .00000325  00000+0  38516-4 0  9994
2 52693  53.1771 107.0458 0001114  85.3255 274.7864 15.08843332224509
STARLINK-4072           
1 52694U 22053AQ  26157.14839977 -.00000184  00000+0  65121-5 0  9990
2 52694  53.1747 106.9848 0001399  78.7571 281.3578 15.08837352224507
STARLINK-4041           
1 52695U 22053AR  26156.59040932  .00005431  00000+0  35936-3 0  9992
2 52695  53.1777 114.2865 0001261  82.0953 278.0182 15.08808561224360
STARLINK-4018           
1 52697U 22053AT  26157.14705709  .00000114  00000+0  25230-4 0  9996
2 52697  53.1783 111.9905 0001334  87.0506 273.0639 15.08836619224444
STARLINK-4030           
1 52698U 22053AU  26157.15713696  .00001017  00000+0  81995-4 0  9995
2 52698  53.1755 111.9349 0001426  70.6014 289.5132 15.08829007224432
STARLINK-3987           
1 52699U 22053AV  26157.13597820  .00000882  00000+0  73508-4 0  9993
2 52699  53.1751 102.0700 0001626  79.0010 281.1164 15.08842198224598
STARLINK-4034           
1 52700U 22053AW  26156.58668168  .00002978  00000+0  20502-3 0  9991
2 52700  53.1785 114.1510 0000500 111.8315 248.2730 15.08854239224361
